{
  "type": "FeatureCollection",
  "features": [
    {
      "type": "Feature",
      "properties": {
        "norad_id": 38722,
        "name": "FENGYUN 1C DEB",
        "group": "fengyun-1c-debris",
        "lat": 30.88317023417302,
        "lon": 91.40267178707683,
        "alt_km": 607.1409632370851,
        "timestamp": "2025-12-23T09:49:07.373560+00:00",
        "meta_object_name": "FENGYUN 1C DEB",
        "meta_object_id": "1999-025ETP",
        "meta_epoch": "2025-12-21T13:13:39.395424",
        "meta_mean_motion": 14.58600116,
        "meta_eccentricity": 0.01460172,
        "meta_inclination": 99.3536,
        "meta_ra_of_asc_node": 94.9702,
        "meta_arg_of_pericenter": 68.2779,
        "meta_mean_anomaly": 293.3889,
        "meta_ephemeris_type": 0,
        "meta_classification_type": "U",
        "meta_norad_cat_id": 38722,
        "meta_element_set_no": 999,
        "meta_rev_at_epoch": 70592,
        "meta_bstar": 0.0020295018,
        "meta_mean_motion_dot": 0.00010904,
        "meta_mean_motion_ddot": 0,
        "tle_line1": "1 38722U 99025ETP 25355.55115041  .00010904  00000+0  20295-2 0  9992",
        "tle_line2": "2 38722  99.3536  94.9702 0146017  68.2779 293.3889 14.58600116705925"
      },
      "geometry": {
        "type": "Point",
        "coordinates": [
          91.40267178707683,
          30.88317023417302
        ]
      }
    },
    {
      "type": "Feature",
      "properties": {
        "norad_id": 38725,
        "name": "FENGYUN 1C DEB",
        "group": "fengyun-1c-debris",
        "lat": 19.682091853901984,
        "lon": 119.86408810292647,
        "alt_km": 771.2540907001558,
        "timestamp": "2025-12-23T09:49:07.373570+00:00",
        "meta_object_name": "FENGYUN 1C DEB",
        "meta_object_id": "1999-025ETS",
        "meta_epoch": "2025-12-17T07:16:31.480896",
        "meta_mean_motion": 14.42909835,
        "meta_eccentricity": 0.00350733,
        "meta_inclination": 98.8709,
        "meta_ra_of_asc_node": 116.7145,
        "meta_arg_of_pericenter": 243.5094,
        "meta_mean_anomaly": 116.2496,
        "meta_ephemeris_type": 0,
        "meta_classification_type": "U",
        "meta_norad_cat_id": 38725,
        "meta_element_set_no": 999,
        "meta_rev_at_epoch": 73418,
        "meta_bstar": 0.0021269674,
        "meta_mean_motion_dot": 7.121e-05,
        "meta_mean_motion_ddot": 0,
        "tle_line1": "1 38725U 99025ETS 25351.30314214  .00007121  00000+0  21270-2 0  9998",
        "tle_line2": "2 38725  98.8709 116.7145 0035073 243.5094 116.2496 14.42909835734185"
      },
      "geometry": {
        "type": "Point",
        "coordinates": [
          119.86408810292647,
          19.682091853901984
        ]
      }
    },
    {
      "type": "Feature",
      "properties": {
        "norad_id": 38726,
        "name": "FENGYUN 1C DEB",
        "group": "fengyun-1c-debris",
        "lat": 8.194304313963391,
        "lon": -155.2802134191608,
        "alt_km": 551.0422866097633,
        "timestamp": "2025-12-23T09:49:07.373580+00:00",
        "meta_object_name": "FENGYUN 1C DEB",
        "meta_object_id": "1999-025ETT",
        "meta_epoch": "2025-12-18T07:44:42.644256",
        "meta_mean_motion": 15.04018095,
        "meta_eccentricity": 0.00236822,
        "meta_inclination": 99.1359,
        "meta_ra_of_asc_node": 17.3874,
        "meta_arg_of_pericenter": 108.0917,
        "meta_mean_anomaly": 252.2886,
        "meta_ephemeris_type": 0,
        "meta_classification_type": "U",
        "meta_norad_cat_id": 38726,
        "meta_element_set_no": 999,
        "meta_rev_at_epoch": 69939,
        "meta_bstar": 0.0056393313,
        "meta_mean_motion_dot": 0.00079186,
        "meta_mean_motion_ddot": 0,
        "tle_line1": "1 38726U 99025ETT 25352.32271579  .00079186  00000+0  56393-2 0  9992",
        "tle_line2": "2 38726  99.1359  17.3874 0023682 108.0917 252.2886 15.04018095699393"
      },
      "geometry": {
        "type": "Point",
        "coordinates": [
          -155.2802134191608,
          8.194304313963391
        ]
      }
    },
    {
      "type": "Feature",
      "properties": {
        "norad_id": 38728,
        "name": "FENGYUN 1C DEB",
        "group": "fengyun-1c-debris",
        "lat": -67.40944378870795,
        "lon": 143.10527797201675,
        "alt_km": 701.6931416026318,
        "timestamp": "2025-12-23T09:49:07.373591+00:00",
        "meta_object_name": "FENGYUN 1C DEB",
        "meta_object_id": "1999-025ETV",
        "meta_epoch": "2025-12-18T04:52:33.180384",
        "meta_mean_motion": 14.70670861,
        "meta_eccentricity": 0.00750743,
        "meta_inclination": 99.2585,
        "meta_ra_of_asc_node": 340.2802,
        "meta_arg_of_pericenter": 38.2663,
        "meta_mean_anomaly": 24.4324,
        "meta_ephemeris_type": 0,
        "meta_classification_type": "U",
        "meta_norad_cat_id": 38728,
        "meta_element_set_no": 999,
        "meta_rev_at_epoch": 65691,
        "meta_bstar": 0.0011739041,
        "meta_mean_motion_dot": 7.408e-05,
        "meta_mean_motion_ddot": 0,
        "tle_line1": "1 38728U 99025ETV 25352.20316181  .00007408  00000+0  11739-2 0  9993",
        "tle_line2": "2 38728  99.2585 340.2802 0075074  38.2663  24.4324 14.70670861656914"
      },
      "geometry": {
        "type": "Point",
        "coordinates": [
          143.10527797201675,
          -67.40944378870795
        ]
      }
    },
    {
      "type": "Feature",
      "properties": {
        "norad_id": 38789,
        "name": "FENGYUN 1C DEB",
        "group": "fengyun-1c-debris",
        "lat": -40.29899522963277,
        "lon": -108.44136260237588,
        "alt_km": 622.5658068656658,
        "timestamp": "2025-12-23T09:49:07.373601+00:00",
        "meta_object_name": "FENGYUN 1C DEB",
        "meta_object_id": "1999-025EUD",
        "meta_epoch": "2025-12-16T11:04:27.892416",
        "meta_mean_motion": 14.45831603,
        "meta_eccentricity": 0.02075268,
        "meta_inclination": 98.8566,
        "meta_ra_of_asc_node": 236.7044,
        "meta_arg_of_pericenter": 14.1855,
        "meta_mean_anomaly": 164.1034,
        "meta_ephemeris_type": 0,
        "meta_classification_type": "U",
        "meta_norad_cat_id": 38789,
        "meta_element_set_no": 999,
        "meta_rev_at_epoch": 61899,
        "meta_bstar": 0.00050950207,
        "meta_mean_motion_dot": 2.303e-05,
        "meta_mean_motion_ddot": 0,
        "tle_line1": "1 38789U 99025EUD 25350.46143394  .00002303  00000+0  50950-3 0  9998",
        "tle_line2": "2 38789  98.8566 236.7044 0207526  14.1855 164.1034 14.45831603618998"
      },
      "geometry": {
        "type": "Point",
        "coordinates": [
          -108.44136260237588,
          -40.29899522963277
        ]
      }
    },
    {
      "type": "Feature",
      "properties": {
        "norad_id": 38795,
        "name": "FENGYUN 1C DEB",
        "group": "fengyun-1c-debris",
        "lat": -31.426132230873637,
        "lon": 24.105510455962325,
        "alt_km": 1193.1391556998196,
        "timestamp": "2025-12-23T09:49:07.373611+00:00",
        "meta_object_name": "FENGYUN 1C DEB",
        "meta_object_id": "1999-025EUK",
        "meta_epoch": "2025-12-19T08:28:58.853280",
        "meta_mean_motion": 13.29929799,
        "meta_eccentricity": 0.050261,
        "meta_inclination": 98.6991,
        "meta_ra_of_asc_node": 15.2992,
        "meta_arg_of_pericenter": 239.3725,
        "meta_mean_anomaly": 115.6931,
        "meta_ephemeris_type": 0,
        "meta_classification_type": "U",
        "meta_norad_cat_id": 38795,
        "meta_element_set_no": 999,
        "meta_rev_at_epoch": 78600,
        "meta_bstar": 0.0020267,
        "meta_mean_motion_dot": 1.866e-05,
        "meta_mean_motion_ddot": 0,
        "tle_line1": "1 38795U 99025EUK 25353.35345895  .00001866  00000+0  20267-2 0  9996",
        "tle_line2": "2 38795  98.6991  15.2992 0502610 239.3725 115.6931 13.29929799786006"
      },
      "geometry": {
        "type": "Point",
        "coordinates": [
          24.105510455962325,
          -31.426132230873637
        ]
      }
    },
    {
      "type": "Feature",
      "properties": {
        "norad_id": 38797,
        "name": "FENGYUN 1C DEB",
        "group": "fengyun-1c-debris",
        "lat": -78.4870578352258,
        "lon": -54.880171147650316,
        "alt_km": 1009.2886223328733,
        "timestamp": "2025-12-23T09:49:07.373622+00:00",
        "meta_object_name": "FENGYUN 1C DEB",
        "meta_object_id": "1999-025EUM",
        "meta_epoch": "2025-12-21T10:37:18.137856",
        "meta_mean_motion": 13.61613976,
        "meta_eccentricity": 0.02449187,
        "meta_inclination": 99.4843,
        "meta_ra_of_asc_node": 248.0555,
        "meta_arg_of_pericenter": 199.0138,
        "meta_mean_anomaly": 160.1737,
        "meta_ephemeris_type": 0,
        "meta_classification_type": "U",
        "meta_norad_cat_id": 38797,
        "meta_element_set_no": 999,
        "meta_rev_at_epoch": 59401,
        "meta_bstar": 0.00019998345,
        "meta_mean_motion_dot": 1.44e-06,
        "meta_mean_motion_ddot": 0,
        "tle_line1": "1 38797U 99025EUM 25355.44257104  .00000144  00000+0  19998-3 0  9993",
        "tle_line2": "2 38797  99.4843 248.0555 0244918 199.0138 160.1737 13.61613976594018"
      },
      "geometry": {
        "type": "Point",
        "coordinates": [
          -54.880171147650316,
          -78.4870578352258
        ]
      }
    }
  ]
}